STARLINK-1944
1 46796U 20074BK  26061.05733448  .00134066  00000+0  14343-2 0  9990
2 46796  53.0470 308.2847 0000343 147.7724 212.3310 15.62960670296198
